{
  "type": "FeatureCollection",
  "features": [
    {
      "type": "Feature",
      "properties": {
        "norad_id": 33972,
        "name": "COSMOS 2251 DEB",
        "group": "cosmos-2251-debris",
        "lat": 33.37365982136896,
        "lon": 11.902162223487444,
        "alt_km": 828.13715330575,
        "timestamp": "2025-12-06T03:35:02.279117+00:00",
        "meta_object_name": "COSMOS 2251 DEB",
        "meta_object_id": "1993-036FF",
        "meta_epoch": "2025-12-04T09:56:51.706176",
        "meta_mean_motion": 14.36133138,
        "meta_eccentricity": 0.0122984,
        "meta_inclination": 73.9946,
        "meta_ra_of_asc_node": 205.9942,
        "meta_arg_of_pericenter": 15.605,
        "meta_mean_anomaly": 162.5803,
        "meta_ephemeris_type": 0,
        "meta_classification_type": "U",
        "meta_norad_cat_id": 33972,
        "meta_element_set_no": 999,
        "meta_rev_at_epoch": 86954,
        "meta_bstar": 0.0026334,
        "meta_mean_motion_dot": 8.346e-05,
        "meta_mean_motion_ddot": 0,
        "tle_line1": "1 33972U 93036FF  25338.41448734  .00008346  00000+0  26334-2 0  9991",
        "tle_line2": "2 33972  73.9946 205.9942 0122984  15.6050 162.5803 14.36133138869548"
      },
      "geometry": {
        "type": "Point",
        "coordinates": [
          11.902162223487444,
          33.37365982136896
        ]
      }
    },
    {
      "type": "Feature",
      "properties": {
        "norad_id": 33973,
        "name": "COSMOS 2251 DEB",
        "group": "cosmos-2251-debris",
        "lat": 35.472496309248044,
        "lon": 126.99034142103943,
        "alt_km": 745.108268756072,
        "timestamp": "2025-12-06T03:35:02.279128+00:00",
        "meta_object_name": "COSMOS 2251 DEB",
        "meta_object_id": "1993-036FG",
        "meta_epoch": "2025-12-04T20:24:41.613696",
        "meta_mean_motion": 14.45377302,
        "meta_eccentricity": 0.00471721,
        "meta_inclination": 74.0073,
        "meta_ra_of_asc_node": 117.6225,
        "meta_arg_of_pericenter": 297.506,
        "meta_mean_anomaly": 183.5346,
        "meta_ephemeris_type": 0,
        "meta_classification_type": "U",
        "meta_norad_cat_id": 33973,
        "meta_element_set_no": 999,
        "meta_rev_at_epoch": 88486,
        "meta_bstar": 0.00028106903,
        "meta_mean_motion_dot": 9.74e-06,
        "meta_mean_motion_ddot": 0,
        "tle_line1": "1 33973U 93036FG  25338.85048164  .00000974  00000+0  28107-3 0  9993",
        "tle_line2": "2 33973  74.0073 117.6225 0047172 297.5060 183.5346 14.45377302884862"
      },
      "geometry": {
        "type": "Point",
        "coordinates": [
          126.99034142103943,
          35.472496309248044
        ]
      }
    },
    {
      "type": "Feature",
      "properties": {
        "norad_id": 33975,
        "name": "COSMOS 2251 DEB",
        "group": "cosmos-2251-debris",
        "lat": -34.92983289292433,
        "lon": 84.32466008164745,
        "alt_km": 903.9223328391517,
        "timestamp": "2025-12-06T03:35:02.279138+00:00",
        "meta_object_name": "COSMOS 2251 DEB",
        "meta_object_id": "1993-036FJ",
        "meta_epoch": "2025-12-05T07:11:18.930624",
        "meta_mean_motion": 14.0049818,
        "meta_eccentricity": 0.01914527,
        "meta_inclination": 73.8012,
        "meta_ra_of_asc_node": 97.5309,
        "meta_arg_of_pericenter": 231.5579,
        "meta_mean_anomaly": 126.8238,
        "meta_ephemeris_type": 0,
        "meta_classification_type": "U",
        "meta_norad_cat_id": 33975,
        "meta_element_set_no": 999,
        "meta_rev_at_epoch": 85725,
        "meta_bstar": 0.0012427787,
        "meta_mean_motion_dot": 2.136e-05,
        "meta_mean_motion_ddot": 0,
        "tle_line1": "1 33975U 93036FJ  25339.29952466  .00002136  00000+0  12428-2 0  9993",
        "tle_line2": "2 33975  73.8012  97.5309 0191452 231.5579 126.8238 14.00498180857259"
      },
      "geometry": {
        "type": "Point",
        "coordinates": [
          84.32466008164745,
          -34.92983289292433
        ]
      }
    },
    {
      "type": "Feature",
      "properties": {
        "norad_id": 33980,
        "name": "COSMOS 2251 DEB",
        "group": "cosmos-2251-debris",
        "lat": -38.55747484142749,
        "lon": -94.84186883053015,
        "alt_km": 683.2757660107045,
        "timestamp": "2025-12-06T03:35:02.279148+00:00",
        "meta_object_name": "COSMOS 2251 DEB",
        "meta_object_id": "1993-036FP",
        "meta_epoch": "2025-12-05T07:06:09.338688",
        "meta_mean_motion": 14.58571016,
        "meta_eccentricity": 0.00290911,
        "meta_inclination": 74.0221,
        "meta_ra_of_asc_node": 73.5821,
        "meta_arg_of_pericenter": 219.8656,
        "meta_mean_anomaly": 201.234,
        "meta_ephemeris_type": 0,
        "meta_classification_type": "U",
        "meta_norad_cat_id": 33980,
        "meta_element_set_no": 999,
        "meta_rev_at_epoch": 88686,
        "meta_bstar": 0.0016037782,
        "meta_mean_motion_dot": 7.482e-05,
        "meta_mean_motion_ddot": 0,
        "tle_line1": "1 33980U 93036FP  25339.29594142  .00007482  00000+0  16038-2 0  9992",
        "tle_line2": "2 33980  74.0221  73.5821 0029091 219.8656 201.2340 14.58571016886861"
      },
      "geometry": {
        "type": "Point",
        "coordinates": [
          -94.84186883053015,
          -38.55747484142749
        ]
      }
    },
    {
      "type": "Feature",
      "properties": {
        "norad_id": 33982,
        "name": "COSMOS 2251 DEB",
        "group": "cosmos-2251-debris",
        "lat": 35.658282039168114,
        "lon": 24.31621739266687,
        "alt_km": 640.5408344567877,
        "timestamp": "2025-12-06T03:35:02.279159+00:00",
        "meta_object_name": "COSMOS 2251 DEB",
        "meta_object_id": "1993-036FR",
        "meta_epoch": "2025-12-05T04:40:18.935040",
        "meta_mean_motion": 14.60169599,
        "meta_eccentricity": 0.00748521,
        "meta_inclination": 74.071,
        "meta_ra_of_asc_node": 14.31,
        "meta_arg_of_pericenter": 61.0091,
        "meta_mean_anomaly": 0.4496,
        "meta_ephemeris_type": 0,
        "meta_classification_type": "U",
        "meta_norad_cat_id": 33982,
        "meta_element_set_no": 999,
        "meta_rev_at_epoch": 89049,
        "meta_bstar": 0.00065183704,
        "meta_mean_motion_dot": 3.236e-05,
        "meta_mean_motion_ddot": 0,
        "tle_line1": "1 33982U 93036FR  25339.19466360  .00003236  00000+0  65184-3 0  9993",
        "tle_line2": "2 33982  74.0710  14.3100 0074852  61.0091   0.4496 14.60169599890491"
      },
      "geometry": {
        "type": "Point",
        "coordinates": [
          24.31621739266687,
          35.658282039168114
        ]
      }
    },
    {
      "type": "Feature",
      "properties": {
        "norad_id": 33983,
        "name": "COSMOS 2251 DEB",
        "group": "cosmos-2251-debris",
        "lat": -15.088566680701028,
        "lon": -16.15356869961822,
        "alt_km": 722.0687938148458,
        "timestamp": "2025-12-06T03:35:02.279170+00:00",
        "meta_object_name": "COSMOS 2251 DEB",
        "meta_object_id": "1993-036FS",
        "meta_epoch": "2025-12-04T23:07:06.756096",
        "meta_mean_motion": 14.50620561,
        "meta_eccentricity": 0.0021407,
        "meta_inclination": 74.0487,
        "meta_ra_of_asc_node": 161.6507,
        "meta_arg_of_pericenter": 265.4424,
        "meta_mean_anomaly": 219.0051,
        "meta_ephemeris_type": 0,
        "meta_classification_type": "U",
        "meta_norad_cat_id": 33983,
        "meta_element_set_no": 999,
        "meta_rev_at_epoch": 88516,
        "meta_bstar": 0.0010407,
        "meta_mean_motion_dot": 4.07e-05,
        "meta_mean_motion_ddot": 0,
        "tle_line1": "1 33983U 93036FS  25338.96327264  .00004070  00000+0  10407-2 0  9991",
        "tle_line2": "2 33983  74.0487 161.6507 0021407 265.4424 219.0051 14.50620561885161"
      },
      "geometry": {
        "type": "Point",
        "coordinates": [
          -16.15356869961822,
          -15.088566680701028
        ]
      }
    },
    {
      "type": "Feature",
      "properties": {
        "norad_id": 33984,
        "name": "COSMOS 2251 DEB",
        "group": "cosmos-2251-debris",
        "lat": -64.26754810991683,
        "lon": -36.68294023812529,
        "alt_km": 680.0372601640956,
        "timestamp": "2025-12-06T03:35:02.279181+00:00",
        "meta_object_name": "COSMOS 2251 DEB",
        "meta_object_id": "1993-036FT",
        "meta_epoch": "2025-12-05T03:37:07.847328",
        "meta_mean_motion": 14.66261467,
        "meta_eccentricity": 0.00235633,
        "meta_inclination": 74.0092,
        "meta_ra_of_asc_node": 1.7555,
        "meta_arg_of_pericenter": 201.7643,
        "meta_mean_anomaly": 219.7044,
        "meta_ephemeris_type": 0,
        "meta_classification_type": "U",
        "meta_norad_cat_id": 33984,
        "meta_element_set_no": 999,
        "meta_rev_at_epoch": 88955,
        "meta_bstar": 0.0017636722,
        "meta_mean_motion_dot": 9.744e-05,
        "meta_mean_motion_ddot": 0,
        "tle_line1": "1 33984U 93036FT  25339.15078527  .00009744  00000+0  17637-2 0  9994",
        "tle_line2": "2 33984  74.0092   1.7555 0023563 201.7643 219.7044 14.66261467889551"
      },
      "geometry": {
        "type": "Point",
        "coordinates": [
          -36.68294023812529,
          -64.26754810991683
        ]
      }
    }
  ]
}